{
  "type": "FeatureCollection",
  "features": [
    {
      "type": "Feature",
      "id": 1,
      "geometry": {
        "type": "Point",
        "coordinates": [
          114.11453490968562,
          22.3717419058893
        ]
      },
      "properties": {
        "OBJECTID": 1,
        "DATASET_EN": "Air Quality Monitoring Network of Hong Kong",
        "DATASET_TC": "香港空氣質素監測網絡",
        "NAME_EN": "Tsuen Wan Air Quality Monitoring Station",
        "ADDRESS_EN": "Princess Alexandra Community Centre, 60 Tai Ho Road, Tsuen Wan, New Territories",
        "NAME_TC": "荃灣空氣質素監測站",
        "ADDRESS_TC": "新界荃灣大河道60號雅麗珊社區中心",
        "SEARCH01_EN": "GENERAL MONITORING STATION",
        "SEARCH01_TC": "一般監測站",
        "NSEARCH01_EN": "N.A.",
        "NSEARCH01_TC": "N.A.",
        "NSEARCH02_EN": "N.A.",
        "NSEARCH02_TC": "N.A.",
        "NSEARCH03_EN": "N.A.",
        "NSEARCH03_TC": "N.A.",
        "NSEARCH04_EN": "N.A.",
        "NSEARCH04_TC": "N.A.",
        "NSEARCH05_EN": "https://www.aqhi.gov.hk/en/monitoring-network/air-quality-monitoring-stations.html?mid=6",
        "NSEARCH05_TC": "https://www.aqhi.gov.hk/tc/monitoring-network/air-quality-monitoring-stations.html?mid=6",
        "NORTHING": 825841.4,
        "EASTING": 829847.6,
        "LATITUDE": 22.37174191,
        "LONGITUDE": 114.11453491,
        "LASTUPDATE": 1770172216000
      }
    },
    {
      "type": "Feature",
      "id": 2,
      "geometry": {
        "type": "Point",
        "coordinates": [
          114.18509009395775,
          22.280132960589683
        ]
      },
      "properties": {
        "OBJECTID": 2,
        "DATASET_EN": "Air Quality Monitoring Network of Hong Kong",
        "DATASET_TC": "香港空氣質素監測網絡",
        "NAME_EN": "Causeway Bay Air Quality Monitoring Station",
        "ADDRESS_EN": "1 Yee Wo Street, Causeway Bay, Hong Kong",
        "NAME_TC": "銅鑼灣空氣質素監測站",
        "ADDRESS_TC": "香港銅鑼灣怡和街1號",
        "SEARCH01_EN": "ROADSIDE MONITORING STATION",
        "SEARCH01_TC": "路邊監測站",
        "NSEARCH01_EN": "N.A.",
        "NSEARCH01_TC": "N.A.",
        "NSEARCH02_EN": "N.A.",
        "NSEARCH02_TC": "N.A.",
        "NSEARCH03_EN": "N.A.",
        "NSEARCH03_TC": "N.A.",
        "NSEARCH04_EN": "N.A.",
        "NSEARCH04_TC": "N.A.",
        "NSEARCH05_EN": "https://www.aqhi.gov.hk/en/monitoring-network/air-quality-monitoring-stations.html?mid=15",
        "NSEARCH05_TC": "https://www.aqhi.gov.hk/tc/monitoring-network/air-quality-monitoring-stations.html?mid=15",
        "NORTHING": 815695.8,
        "EASTING": 837114.7000000001,
        "LATITUDE": 22.28013296,
        "LONGITUDE": 114.18509009,
        "LASTUPDATE": 1770172173000
      }
    },
    {
      "type": "Feature",
      "id": 3,
      "geometry": {
        "type": "Point",
        "coordinates": [
          114.15812743135297,
          22.28181450160065
        ]
      },
      "properties": {
        "OBJECTID": 3,
        "DATASET_EN": "Air Quality Monitoring Network of Hong Kong",
        "DATASET_TC": "香港空氣質素監測網絡",
        "NAME_EN": "Central Air Quality Monitoring Station",
        "ADDRESS_EN": "Junction of Chater Road and Des Voeux Road Central, Central, Hong Kong",
        "NAME_TC": "中環空氣質素監測站",
        "ADDRESS_TC": "香港中環遮打道與德輔道中交界",
        "SEARCH01_EN": "ROADSIDE MONITORING STATION",
        "SEARCH01_TC": "路邊監測站",
        "NSEARCH01_EN": "N.A.",
        "NSEARCH01_TC": "N.A.",
        "NSEARCH02_EN": "N.A.",
        "NSEARCH02_TC": "N.A.",
        "NSEARCH03_EN": "N.A.",
        "NSEARCH03_TC": "N.A.",
        "NSEARCH04_EN": "N.A.",
        "NSEARCH04_TC": "N.A.",
        "NSEARCH05_EN": "https://www.aqhi.gov.hk/en/monitoring-network/air-quality-monitoring-stations.html?mid=16",
        "NSEARCH05_TC": "https://www.aqhi.gov.hk/tc/monitoring-network/air-quality-monitoring-stations.html?mid=16",
        "NORTHING": 815882.1,
        "EASTING": 834336,
        "LATITUDE": 22.2818145,
        "LONGITUDE": 114.15812743,
        "LASTUPDATE": 1770172131000
      }
    },
    {
      "type": "Feature",
      "id": 4,
      "geometry": {
        "type": "Point",
        "coordinates": [
          114.14442070958327,
          22.284890887207478
        ]
      },
      "properties": {
        "OBJECTID": 4,
        "DATASET_EN": "Air Quality Monitoring Network of Hong Kong",
        "DATASET_TC": "香港空氣質素監測網絡",
        "NAME_EN": "Central/Western Air Quality Monitoring Station",
        "ADDRESS_EN": "Sai Ying Pun Community Complex, 2 High Street, Central & Western, Hong Kong",
        "NAME_TC": "中西區空氣質素監測站",
        "ADDRESS_TC": "香港中西區高街2號西營盤社區綜合大樓",
        "SEARCH01_EN": "GENERAL MONITORING STATION",
        "SEARCH01_TC": "一般監測站",
        "NSEARCH01_EN": "N.A.",
        "NSEARCH01_TC": "N.A.",
        "NSEARCH02_EN": "N.A.",
        "NSEARCH02_TC": "N.A.",
        "NSEARCH03_EN": "N.A.",
        "NSEARCH03_TC": "N.A.",
        "NSEARCH04_EN": "N.A.",
        "NSEARCH04_TC": "N.A.",
        "NSEARCH05_EN": "https://www.aqhi.gov.hk/en/monitoring-network/air-quality-monitoring-stations.html?mid=0",
        "NSEARCH05_TC": "https://www.aqhi.gov.hk/tc/monitoring-network/air-quality-monitoring-stations.html?mid=0",
        "NORTHING": 816223,
        "EASTING": 832923.5,
        "LATITUDE": 22.28489089,
        "LONGITUDE": 114.14442071,
        "LASTUPDATE": 1770172083000
      }
    },
    {
      "type": "Feature",
      "id": 5,
      "geometry": {
        "type": "Point",
        "coordinates": [
          114.16827176330283,
          22.322611149192284
        ]
      },
      "properties": {
        "OBJECTID": 5,
        "DATASET_EN": "Air Quality Monitoring Network of Hong Kong",
        "DATASET_TC": "香港空氣質素監測網絡",
        "NAME_EN": "Mong Kok Air Quality Monitoring Station",
        "ADDRESS_EN": "Junction of Nathan Road and Lai Chi Kok Road, Mong Kok, Kowloon",
        "NAME_TC": "旺角空氣質素監測站",
        "ADDRESS_TC": "九龍旺角彌敦道與荔枝角道交界",
        "SEARCH01_EN": "ROADSIDE MONITORING STATION",
        "SEARCH01_TC": "路邊監測站",
        "NSEARCH01_EN": "N.A.",
        "NSEARCH01_TC": "N.A.",
        "NSEARCH02_EN": "N.A.",
        "NSEARCH02_TC": "N.A.",
        "NSEARCH03_EN": "N.A.",
        "NSEARCH03_TC": "N.A.",
        "NSEARCH04_EN": "N.A.",
        "NSEARCH04_TC": "N.A.",
        "NSEARCH05_EN": "https://www.aqhi.gov.hk/en/monitoring-network/air-quality-monitoring-stations.html?mid=17",
        "NSEARCH05_TC": "https://www.aqhi.gov.hk/tc/monitoring-network/air-quality-monitoring-stations.html?mid=17",
        "NORTHING": 820399.6,
        "EASTING": 835381.7000000001,
        "LATITUDE": 22.32261115,
        "LONGITUDE": 114.16827176,
        "LASTUPDATE": 1770172044000
      }
    },
    {
      "type": "Feature",
      "id": 6,
      "geometry": {
        "type": "Point",
        "coordinates": [
          114.1645702224761,
          22.45095987737678
        ]
      },
      "properties": {
        "OBJECTID": 6,
        "DATASET_EN": "Air Quality Monitoring Network of Hong Kong",
        "DATASET_TC": "香港空氣質素監測網絡",
        "NAME_EN": "Tai Po Air Quality Monitoring Station",
        "ADDRESS_EN": "Tai Po Government Offices Building, 1 Ting Kok Road, Tai Po, New Territories",
        "NAME_TC": "大埔空氣質素監測站",
        "ADDRESS_TC": "新界大埔汀角路1號大埔政府合署",
        "SEARCH01_EN": "GENERAL MONITORING STATION",
        "SEARCH01_TC": "一般監測站",
        "NSEARCH01_EN": "N.A.",
        "NSEARCH01_TC": "N.A.",
        "NSEARCH02_EN": "N.A.",
        "NSEARCH02_TC": "N.A.",
        "NSEARCH03_EN": "N.A.",
        "NSEARCH03_TC": "N.A.",
        "NSEARCH04_EN": "N.A.",
        "NSEARCH04_TC": "N.A.",
        "NSEARCH05_EN": "https://www.aqhi.gov.hk/en/monitoring-network/air-quality-monitoring-stations.html?mid=11",
        "NSEARCH05_TC": "https://www.aqhi.gov.hk/tc/monitoring-network/air-quality-monitoring-stations.html?mid=11",
        "NORTHING": 834612.4,
        "EASTING": 835001.5,
        "LATITUDE": 22.45095988,
        "LONGITUDE": 114.16457022,
        "LASTUPDATE": 1770172007000
      }
    },
    {
      "type": "Feature",
      "id": 7,
      "geometry": {
        "type": "Point",
        "coordinates": [
          114.15910912818445,
          22.33022590000336
        ]
      },
      "properties": {
        "OBJECTID": 7,
        "DATASET_EN": "Air Quality Monitoring Network of Hong Kong",
        "DATASET_TC": "香港空氣質素監測網絡",
        "NAME_EN": "Sham Shui Po Air Quality Monitoring Station",
        "ADDRESS_EN": "Sham Shui Po Police Station, 37A Yen Chow Street, Sham Shui Po, Kowloon",
        "NAME_TC": "深水埗空氣質素監測站",
        "ADDRESS_TC": "九龍深水埗欽州街37號A深水埗警署",
        "SEARCH01_EN": "GENERAL MONITORING STATION",
        "SEARCH01_TC": "一般監測站",
        "NSEARCH01_EN": "N.A.",
        "NSEARCH01_TC": "N.A.",
        "NSEARCH02_EN": "N.A.",
        "NSEARCH02_TC": "N.A.",
        "NSEARCH03_EN": "N.A.",
        "NSEARCH03_TC": "N.A.",
        "NSEARCH04_EN": "N.A.",
        "NSEARCH04_TC": "N.A.",
        "NSEARCH05_EN": "https://www.aqhi.gov.hk/en/monitoring-network/air-quality-monitoring-stations.html?mid=4",
        "NSEARCH05_TC": "https://www.aqhi.gov.hk/tc/monitoring-network/air-quality-monitoring-stations.html?mid=4",
        "NORTHING": 821242.9,
        "EASTING": 834437.8,
        "LATITUDE": 22.3302259,
        "LONGITUDE": 114.15910913,
        "LASTUPDATE": 1770171935000
      }
    },
    {
      "type": "Feature",
      "id": 8,
      "geometry": {
        "type": "Point",
        "coordinates": [
          114.18453161033281,
          22.376280719690342
        ]
      },
      "properties": {
        "OBJECTID": 8,
        "DATASET_EN": "Air Quality Monitoring Network of Hong Kong",
        "DATASET_TC": "香港空氣質素監測網絡",
        "NAME_EN": "Sha Tin Air Quality Monitoring Station",
        "ADDRESS_EN": "Sha Tin Government Secondary School, 11-17 Man Lai Road, Sha Tin, New Territories",
        "NAME_TC": "沙田空氣質素監測站",
        "ADDRESS_TC": "新界沙田文禮路11-17號沙田官立中學",
        "SEARCH01_EN": "GENERAL MONITORING STATION",
        "SEARCH01_TC": "一般監測站",
        "NSEARCH01_EN": "N.A.",
        "NSEARCH01_TC": "N.A.",
        "NSEARCH02_EN": "N.A.",
        "NSEARCH02_TC": "N.A.",
        "NSEARCH03_EN": "N.A.",
        "NSEARCH03_TC": "N.A.",
        "NSEARCH04_EN": "N.A.",
        "NSEARCH04_TC": "N.A.",
        "NSEARCH05_EN": "https://www.aqhi.gov.hk/en/monitoring-network/air-quality-monitoring-stations.html?mid=12",
        "NSEARCH05_TC": "https://www.aqhi.gov.hk/tc/monitoring-network/air-quality-monitoring-stations.html?mid=12",
        "NORTHING": 826342.7000000001,
        "EASTING": 837056.6,
        "LATITUDE": 22.37628072,
        "LONGITUDE": 114.18453161,
        "LASTUPDATE": 1770171888000
      }
    },
    {
      "type": "Feature",
      "id": 9,
      "geometry": {
        "type": "Point",
        "coordinates": [
          114.02264887963739,
          22.445155078643626
        ]
      },
      "properties": {
        "OBJECTID": 9,
        "DATASET_EN": "Air Quality Monitoring Network of Hong Kong",
        "DATASET_TC": "香港空氣質素監測網絡",
        "NAME_EN": "Yuen Long Air Quality Monitoring Station",
        "ADDRESS_EN": "Yuen Long District Office Building, 269 Castle Peak Road, Yuen Long, New Territories",
        "NAME_TC": "元朗空氣質素監測站",
        "ADDRESS_TC": "新界元朗青山公路269號元朗民政事務處大廈",
        "SEARCH01_EN": "GENERAL MONITORING STATION",
        "SEARCH01_TC": "一般監測站",
        "NSEARCH01_EN": "N.A.",
        "NSEARCH01_TC": "N.A.",
        "NSEARCH02_EN": "N.A.",
        "NSEARCH02_TC": "N.A.",
        "NSEARCH03_EN": "N.A.",
        "NSEARCH03_TC": "N.A.",
        "NSEARCH04_EN": "N.A.",
        "NSEARCH04_TC": "N.A.",
        "NSEARCH05_EN": "https://www.aqhi.gov.hk/en/monitoring-network/air-quality-monitoring-stations.html?mid=8",
        "NSEARCH05_TC": "https://www.aqhi.gov.hk/tc/monitoring-network/air-quality-monitoring-stations.html?mid=8",
        "NORTHING": 833977.7000000001,
        "EASTING": 820392.5,
        "LATITUDE": 22.44515508,
        "LONGITUDE": 114.02264888,
        "LASTUPDATE": 1770171849000
      }
    },
    {
      "type": "Feature",
      "id": 10,
      "geometry": {
        "type": "Point",
        "coordinates": [
          114.12960136293972,
          22.357103980117888
        ]
      },
      "properties": {
        "OBJECTID": 10,
        "DATASET_EN": "Air Quality Monitoring Network of Hong Kong",
        "DATASET_TC": "香港空氣質素監測網絡",
        "NAME_EN": "Kwai Chung Air Quality Monitoring Station",
        "ADDRESS_EN": "Kwai Chung Police Station, 999 Kwai Chung Road, Kwai Chung, New Territories",
        "NAME_TC": "葵涌空氣質素監測站",
        "ADDRESS_TC": "新界葵涌葵涌道999號葵涌警署",
        "SEARCH01_EN": "GENERAL MONITORING STATION",
        "SEARCH01_TC": "一般監測站",
        "NSEARCH01_EN": "N.A.",
        "NSEARCH01_TC": "N.A.",
        "NSEARCH02_EN": "N.A.",
        "NSEARCH02_TC": "N.A.",
        "NSEARCH03_EN": "N.A.",
        "NSEARCH03_TC": "N.A.",
        "NSEARCH04_EN": "N.A.",
        "NSEARCH04_TC": "N.A.",
        "NSEARCH05_EN": "https://www.aqhi.gov.hk/en/monitoring-network/air-quality-monitoring-stations.html?mid=5",
        "NSEARCH05_TC": "https://www.aqhi.gov.hk/tc/monitoring-network/air-quality-monitoring-stations.html?mid=5",
        "NORTHING": 824219.9,
        "EASTING": 831398.8,
        "LATITUDE": 22.35710398,
        "LONGITUDE": 114.12960136,
        "LASTUPDATE": 1770171801000
      }
    },
    {
      "type": "Feature",
      "id": 11,
      "geometry": {
        "type": "Point",
        "coordinates": [
          114.36071850010246,
          22.471316687516556
        ]
      },
      "properties": {
        "OBJECTID": 11,
        "DATASET_EN": "Air Quality Monitoring Network of Hong Kong",
        "DATASET_TC": "香港空氣質素監測網絡",
        "NAME_EN": "Tap Mun Air Quality Monitoring Station",
        "ADDRESS_EN": "Tap Mun Police Post",
        "NAME_TC": "塔門空氣質素監測站",
        "ADDRESS_TC": "塔門警崗",
        "SEARCH01_EN": "GENERAL MONITORING STATION",
        "SEARCH01_TC": "一般監測站",
        "NSEARCH01_EN": "N.A.",
        "NSEARCH01_TC": "N.A.",
        "NSEARCH02_EN": "N.A.",
        "NSEARCH02_TC": "N.A.",
        "NSEARCH03_EN": "N.A.",
        "NSEARCH03_TC": "N.A.",
        "NSEARCH04_EN": "N.A.",
        "NSEARCH04_TC": "N.A.",
        "NSEARCH05_EN": "https://www.aqhi.gov.hk/en/monitoring-network/air-quality-monitoring-stations.html?mid=14",
        "NSEARCH05_TC": "https://www.aqhi.gov.hk/tc/monitoring-network/air-quality-monitoring-stations.html?mid=14",
        "NORTHING": 836878.2000000001,
        "EASTING": 855188.8,
        "LATITUDE": 22.47131669,
        "LONGITUDE": 114.3607185,
        "LASTUPDATE": 1770171761000
      }
    },
    {
      "type": "Feature",
      "id": 12,
      "geometry": {
        "type": "Point",
        "coordinates": [
          114.21937155979792,
          22.28288555297906
        ]
      },
      "properties": {
        "OBJECTID": 12,
        "DATASET_EN": "Air Quality Monitoring Network of Hong Kong",
        "DATASET_TC": "香港空氣質素監測網絡",
        "NAME_EN": "Eastern Air Quality Monitoring Station",
        "ADDRESS_EN": "Sai Wan Ho Fire Station, 20 Wai Hang Street, Eastern, Hong Kong",
        "NAME_TC": "東區空氣質素監測站",
        "ADDRESS_TC": "香港東區惠亨街20號西灣河消防局",
        "SEARCH01_EN": "GENERAL MONITORING STATION",
        "SEARCH01_TC": "一般監測站",
        "NSEARCH01_EN": "N.A.",
        "NSEARCH01_TC": "N.A.",
        "NSEARCH02_EN": "N.A.",
        "NSEARCH02_TC": "N.A.",
        "NSEARCH03_EN": "N.A.",
        "NSEARCH03_TC": "N.A.",
        "NSEARCH04_EN": "N.A.",
        "NSEARCH04_TC": "N.A.",
        "NSEARCH05_EN": "https://www.aqhi.gov.hk/en/monitoring-network/air-quality-monitoring-stations.html?mid=2",
        "NSEARCH05_TC": "https://www.aqhi.gov.hk/tc/monitoring-network/air-quality-monitoring-stations.html?mid=2",
        "NORTHING": 816001.2000000001,
        "EASTING": 840647.6,
        "LATITUDE": 22.28288555,
        "LONGITUDE": 114.21937156,
        "LASTUPDATE": 1770171722000
      }
    },
    {
      "type": "Feature",
      "id": 13,
      "geometry": {
        "type": "Point",
        "coordinates": [
          113.94365902183513,
          22.28888886625089
        ]
      },
      "properties": {
        "OBJECTID": 13,
        "DATASET_EN": "Air Quality Monitoring Network of Hong Kong",
        "DATASET_TC": "香港空氣質素監測網絡",
        "NAME_EN": "Tung Chung Air Quality Monitoring Station",
        "ADDRESS_EN": "Tung Chung Health Centre , 6 Fu Tung Street, Tung Chung, New Territories",
        "NAME_TC": "東涌空氣質素監測站",
        "ADDRESS_TC": "新界東涌富東街6號東涌健康院",
        "SEARCH01_EN": "GENERAL MONITORING STATION",
        "SEARCH01_TC": "一般監測站",
        "NSEARCH01_EN": "N.A.",
        "NSEARCH01_TC": "N.A.",
        "NSEARCH02_EN": "N.A.",
        "NSEARCH02_TC": "N.A.",
        "NSEARCH03_EN": "N.A.",
        "NSEARCH03_TC": "N.A.",
        "NSEARCH04_EN": "N.A.",
        "NSEARCH04_TC": "N.A.",
        "NSEARCH05_EN": "https://www.aqhi.gov.hk/en/monitoring-network/air-quality-monitoring-stations.html?mid=10",
        "NSEARCH05_TC": "https://www.aqhi.gov.hk/tc/monitoring-network/air-quality-monitoring-stations.html?mid=10",
        "NORTHING": 816683.9,
        "EASTING": 812234.7000000001,
        "LATITUDE": 22.28888887,
        "LONGITUDE": 113.94365902,
        "LASTUPDATE": 1770171633000
      }
    },
    {
      "type": "Feature",
      "id": 14,
      "geometry": {
        "type": "Point",
        "coordinates": [
          113.97672832293362,
          22.39114326426005
        ]
      },
      "properties": {
        "OBJECTID": 14,
        "DATASET_EN": "Air Quality Monitoring Network of Hong Kong",
        "DATASET_TC": "香港空氣質素監測網絡",
        "NAME_EN": "Tuen Mun Air Quality Monitoring Station",
        "ADDRESS_EN": "Tuen Mun Public Library, 1 Tuen Hi Road, Tuen Mun, N.T.",
        "NAME_TC": "屯門空氣質素監測站",
        "ADDRESS_TC": "新界屯門屯喜路1號屯門公共圖書館",
        "SEARCH01_EN": "GENERAL MONITORING STATION",
        "SEARCH01_TC": "一般監測站",
        "NSEARCH01_EN": "N.A.",
        "NSEARCH01_TC": "N.A.",
        "NSEARCH02_EN": "N.A.",
        "NSEARCH02_TC": "N.A.",
        "NSEARCH03_EN": "N.A.",
        "NSEARCH03_TC": "N.A.",
        "NSEARCH04_EN": "N.A.",
        "NSEARCH04_TC": "N.A.",
        "NSEARCH05_EN": "https://www.aqhi.gov.hk/en/monitoring-network/air-quality-monitoring-stations.html?mid=9",
        "NSEARCH05_TC": "https://www.aqhi.gov.hk/tc/monitoring-network/air-quality-monitoring-stations.html?mid=9",
        "NORTHING": 828002.2000000001,
        "EASTING": 815657.6,
        "LATITUDE": 22.39114326,
        "LONGITUDE": 113.97672832,
        "LASTUPDATE": 1770171590000
      }
    },
    {
      "type": "Feature",
      "id": 15,
      "geometry": {
        "type": "Point",
        "coordinates": [
          114.25956136517938,
          22.317642407998143
        ]
      },
      "properties": {
        "OBJECTID": 15,
        "DATASET_EN": "Air Quality Monitoring Network of Hong Kong",
        "DATASET_TC": "香港空氣質素監測網絡",
        "NAME_EN": "Tseung Kwan O Air Quality Monitoring Station",
        "ADDRESS_EN": "Tseung Kwan O Sports Centre, 9 Wan Lung Road, Tseung Kwan O, Sai Kung",
        "NAME_TC": "將軍澳空氣質素監測站",
        "ADDRESS_TC": "西貢將軍澳運隆路9號將軍澳體育館",
        "SEARCH01_EN": "GENERAL MONITORING STATION",
        "SEARCH01_TC": "一般監測站",
        "NSEARCH01_EN": "N.A.",
        "NSEARCH01_TC": "N.A.",
        "NSEARCH02_EN": "N.A.",
        "NSEARCH02_TC": "N.A.",
        "NSEARCH03_EN": "N.A.",
        "NSEARCH03_TC": "N.A.",
        "NSEARCH04_EN": "N.A.",
        "NSEARCH04_TC": "N.A.",
        "NSEARCH05_EN": "https://www.aqhi.gov.hk/en/monitoring-network/air-quality-monitoring-stations.html?mid=7",
        "NSEARCH05_TC": "https://www.aqhi.gov.hk/tc/monitoring-network/air-quality-monitoring-stations.html?mid=7",
        "NORTHING": 819851.7000000001,
        "EASTING": 844787.3,
        "LATITUDE": 22.31764241,
        "LONGITUDE": 114.25956137,
        "LASTUPDATE": 1770171533000
      }
    },
    {
      "type": "Feature",
      "id": 16,
      "geometry": {
        "type": "Point",
        "coordinates": [
          114.23117417075346,
          22.309625396428988
        ]
      },
      "properties": {
        "OBJECTID": 16,
        "DATASET_EN": "Air Quality Monitoring Network of Hong Kong",
        "DATASET_TC": "香港空氣質素監測網絡",
        "NAME_EN": "Kwun Tong Air Quality Monitoring Station",
        "ADDRESS_EN": "Kwun Tong Police Station, 9 Lei Yue Mun Road, Kwun Tong, Kowloon",
        "NAME_TC": "觀塘空氣質素監測站",
        "ADDRESS_TC": "觀塘警署九龍觀塘鯉魚門道九號",
        "SEARCH01_EN": "GENERAL MONITORING STATION",
        "SEARCH01_TC": "一般監測站",
        "NSEARCH01_EN": "N.A.",
        "NSEARCH01_TC": "N.A.",
        "NSEARCH02_EN": "N.A.",
        "NSEARCH02_TC": "N.A.",
        "NSEARCH03_EN": "N.A.",
        "NSEARCH03_TC": "N.A.",
        "NSEARCH04_EN": "N.A.",
        "NSEARCH04_TC": "N.A.",
        "NSEARCH05_EN": "https://www.aqhi.gov.hk/en/monitoring-network/air-quality-monitoring-stations.html?mid=3",
        "NSEARCH05_TC": "https://www.aqhi.gov.hk/tc/monitoring-network/air-quality-monitoring-stations.html?mid=3",
        "NORTHING": 818962.61052284,
        "EASTING": 841862.86653358,
        "LATITUDE": 22.3096251,
        "LONGITUDE": 114.23117417,
        "LASTUPDATE": 1770171457000
      }
    },
    {
      "type": "Feature",
      "id": 17,
      "geometry": {
        "type": "Point",
        "coordinates": [
          114.12824408579202,
          22.496697524193664
        ]
      },
      "properties": {
        "OBJECTID": 17,
        "DATASET_EN": "Air Quality Monitoring Network of Hong Kong",
        "DATASET_TC": "香港空氣質素監測網絡",
        "NAME_EN": "North Air Quality Monitoring Station",
        "ADDRESS_EN": "19 Pak Wo Road, Sheung Shui, New Territories.",
        "NAME_TC": "北區空氣質素監測站",
        "ADDRESS_TC": "新界上水百和路19號",
        "SEARCH01_EN": "GENERAL MONITORING STATION",
        "SEARCH01_TC": "一般監測站",
        "NSEARCH01_EN": "N.A.",
        "NSEARCH01_TC": "N.A.",
        "NSEARCH02_EN": "N.A.",
        "NSEARCH02_TC": "N.A.",
        "NSEARCH03_EN": "N.A.",
        "NSEARCH03_TC": "N.A.",
        "NSEARCH04_EN": "N.A.",
        "NSEARCH04_TC": "N.A.",
        "NSEARCH05_EN": "https://www.aqhi.gov.hk/en/monitoring-network/air-quality-monitoring-stations.html?mid=13",
        "NSEARCH05_TC": "https://www.aqhi.gov.hk/tc/monitoring-network/air-quality-monitoring-stations.html?mid=13",
        "NORTHING": 839678,
        "EASTING": 831264,
        "LATITUDE": 22.49669723,
        "LONGITUDE": 114.12824408,
        "LASTUPDATE": 1770171370000
      }
    },
    {
      "type": "Feature",
      "id": 18,
      "geometry": {
        "type": "Point",
        "coordinates": [
          114.16014010261138,
          22.24746120693035
        ]
      },
      "properties": {
        "OBJECTID": 18,
        "DATASET_EN": "Air Quality Monitoring Network of Hong Kong",
        "DATASET_TC": "香港空氣質素監測網絡",
        "NAME_EN": "Southern Air Quality Monitoring Station",
        "ADDRESS_EN": "No.1 Aberdeen Praya Road, Hong Kong.",
        "NAME_TC": "南區空氣質素監測站",
        "ADDRESS_TC": "香港香港仔海傍道1號",
        "SEARCH01_EN": "GENERAL MONITORING STATION",
        "SEARCH01_TC": "一般監測站",
        "NSEARCH01_EN": "N.A.",
        "NSEARCH01_TC": "N.A.",
        "NSEARCH02_EN": "N.A.",
        "NSEARCH02_TC": "N.A.",
        "NSEARCH03_EN": "N.A.",
        "NSEARCH03_TC": "N.A.",
        "NSEARCH04_EN": "N.A.",
        "NSEARCH04_TC": "N.A.",
        "NSEARCH05_EN": "https://www.aqhi.gov.hk/en/monitoring-network/air-quality-monitoring-stations.html?mid=1",
        "NSEARCH05_TC": "https://www.aqhi.gov.hk/tc/monitoring-network/air-quality-monitoring-stations.html?mid=1",
        "NORTHING": 812078,
        "EASTING": 834543,
        "LATITUDE": 22.24746092,
        "LONGITUDE": 114.1601401,
        "LASTUPDATE": 1770171290000
      }
    }
  ]
}